<?xml version="1.0" encoding="UTF-8"?>
<ndm xmlns:xsi="http://www.w3.org/2001/XMLSchema-instance" xsi:noNamespaceSchemaLocation="https://sanaregistry.org/r/ndmxml_unqualified/ndmxml-2.0.0-master-2.0.xsd">
<omm id="CCSDS_OMM_VERS" version="2.0">
<header><CREATION_DATE/><ORIGINATOR/></header><body><segment><metadata><OBJECT_NAME>ORBCOMM FM33 [-]</OBJECT_NAME><OBJECT_ID>1999-065D</OBJECT_ID><CENTER_NAME>EARTH</CENTER_NAME><REF_FRAME>TEME</REF_FRAME><TIME_SYSTEM>UTC</TIME_SYSTEM><MEAN_ELEMENT_THEORY>SGP4</MEAN_ELEMENT_THEORY></metadata><data><meanElements><EPOCH>2023-09-18T01:14:12.101280</EPOCH><MEAN_MOTION>14.36720096</MEAN_MOTION><ECCENTRICITY>.0008662</ECCENTRICITY><INCLINATION>45.0290</INCLINATION><RA_OF_ASC_NODE>144.3248</RA_OF_ASC_NODE><ARG_OF_PERICENTER>89.6545</ARG_OF_PERICENTER><MEAN_ANOMALY>50.2871</MEAN_ANOMALY></meanElements><tleParameters><EPHEMERIS_TYPE>0</EPHEMERIS_TYPE><CLASSIFICATION_TYPE>U</CLASSIFICATION_TYPE><NORAD_CAT_ID>25983</NORAD_CAT_ID><ELEMENT_SET_NO>999</ELEMENT_SET_NO><REV_AT_EPOCH>24427</REV_AT_EPOCH><BSTAR>.55274E-3</BSTAR><MEAN_MOTION_DOT>.1503E-4</MEAN_MOTION_DOT><MEAN_MOTION_DDOT>0</MEAN_MOTION_DDOT></tleParameters></data></segment></body></omm>
<omm id="CCSDS_OMM_VERS" version="2.0">
<header><CREATION_DATE/><ORIGINATOR/></header><body><segment><metadata><OBJECT_NAME>ORBCOMM FM36 [-]</OBJECT_NAME><OBJECT_ID>1999-065E</OBJECT_ID><CENTER_NAME>EARTH</CENTER_NAME><REF_FRAME>TEME</REF_FRAME><TIME_SYSTEM>UTC</TIME_SYSTEM><MEAN_ELEMENT_THEORY>SGP4</MEAN_ELEMENT_THEORY></metadata><data><meanElements><EPOCH>2023-09-17T17:08:49.465824</EPOCH><MEAN_MOTION>14.34604667</MEAN_MOTION><ECCENTRICITY>.0005286</ECCENTRICITY><INCLINATION>45.0395</INCLINATION><RA_OF_ASC_NODE>227.3587</RA_OF_ASC_NODE><ARG_OF_PERICENTER>323.3356</ARG_OF_PERICENTER><MEAN_ANOMALY>36.7129</MEAN_ANOMALY></meanElements><tleParameters><EPHEMERIS_TYPE>0</EPHEMERIS_TYPE><CLASSIFICATION_TYPE>U</CLASSIFICATION_TYPE><NORAD_CAT_ID>25984</NORAD_CAT_ID><ELEMENT_SET_NO>999</ELEMENT_SET_NO><REV_AT_EPOCH>24322</REV_AT_EPOCH><BSTAR>.61062E-3</BSTAR><MEAN_MOTION_DOT>.16E-4</MEAN_MOTION_DOT><MEAN_MOTION_DDOT>0</MEAN_MOTION_DDOT></tleParameters></data></segment></body></omm>
<omm id="CCSDS_OMM_VERS" version="2.0">
<header><CREATION_DATE/><ORIGINATOR/></header><body><segment><metadata><OBJECT_NAME>ORBCOMM FM35 [+]</OBJECT_NAME><OBJECT_ID>1999-065F</OBJECT_ID><CENTER_NAME>EARTH</CENTER_NAME><REF_FRAME>TEME</REF_FRAME><TIME_SYSTEM>UTC</TIME_SYSTEM><MEAN_ELEMENT_THEORY>SGP4</MEAN_ELEMENT_THEORY></metadata><data><meanElements><EPOCH>2023-09-18T01:08:42.253728</EPOCH><MEAN_MOTION>14.34315840</MEAN_MOTION><ECCENTRICITY>.0001708</ECCENTRICITY><INCLINATION>45.0393</INCLINATION><RA_OF_ASC_NODE>227.8125</RA_OF_ASC_NODE><ARG_OF_PERICENTER>48.1075</ARG_OF_PERICENTER><MEAN_ANOMALY>311.9918</MEAN_ANOMALY></meanElements><tleParameters><EPHEMERIS_TYPE>0</EPHEMERIS_TYPE><CLASSIFICATION_TYPE>U</CLASSIFICATION_TYPE><NORAD_CAT_ID>25985</NORAD_CAT_ID><ELEMENT_SET_NO>999</ELEMENT_SET_NO><REV_AT_EPOCH>24327</REV_AT_EPOCH><BSTAR>.5804E-3</BSTAR><MEAN_MOTION_DOT>.1504E-4</MEAN_MOTION_DOT><MEAN_MOTION_DDOT>0</MEAN_MOTION_DDOT></tleParameters></data></segment></body></omm>
<omm id="CCSDS_OMM_VERS" version="2.0">
<header><CREATION_DATE/><ORIGINATOR/></header><body><segment><metadata><OBJECT_NAME>ORBCOMM FM34 [-]</OBJECT_NAME><OBJECT_ID>1999-065G</OBJECT_ID><CENTER_NAME>EARTH</CENTER_NAME><REF_FRAME>TEME</REF_FRAME><TIME_SYSTEM>UTC</TIME_SYSTEM><MEAN_ELEMENT_THEORY>SGP4</MEAN_ELEMENT_THEORY></metadata><data><meanElements><EPOCH>2023-09-18T05:16:26.751648</EPOCH><MEAN_MOTION>14.34258002</MEAN_MOTION><ECCENTRICITY>.0004174</ECCENTRICITY><INCLINATION>45.0388</INCLINATION><RA_OF_ASC_NODE>227.4662</RA_OF_ASC_NODE><ARG_OF_PERICENTER>0.0571</ARG_OF_PERICENTER><MEAN_ANOMALY>0.0276</MEAN_ANOMALY></meanElements><tleParameters><EPHEMERIS_TYPE>0</EPHEMERIS_TYPE><CLASSIFICATION_TYPE>U</CLASSIFICATION_TYPE><NORAD_CAT_ID>25986</NORAD_CAT_ID><ELEMENT_SET_NO>999</ELEMENT_SET_NO><REV_AT_EPOCH>24326</REV_AT_EPOCH><BSTAR>.54452E-3</BSTAR><MEAN_MOTION_DOT>.1401E-4</MEAN_MOTION_DOT><MEAN_MOTION_DDOT>0</MEAN_MOTION_DDOT></tleParameters></data></segment></body></omm>
<omm id="CCSDS_OMM_VERS" version="2.0">
<header><CREATION_DATE/><ORIGINATOR/></header><body><segment><metadata><OBJECT_NAME>ORBCOMM FM38 [-]</OBJECT_NAME><OBJECT_ID>2008-031A</OBJECT_ID><CENTER_NAME>EARTH</CENTER_NAME><REF_FRAME>TEME</REF_FRAME><TIME_SYSTEM>UTC</TIME_SYSTEM><MEAN_ELEMENT_THEORY>SGP4</MEAN_ELEMENT_THEORY></metadata><data><meanElements><EPOCH>2023-09-17T16:43:21.668448</EPOCH><MEAN_MOTION>14.75996141</MEAN_MOTION><ECCENTRICITY>.0005851</ECCENTRICITY><INCLINATION>48.4404</INCLINATION><RA_OF_ASC_NODE>104.4647</RA_OF_ASC_NODE><ARG_OF_PERICENTER>188.1248</ARG_OF_PERICENTER><MEAN_ANOMALY>171.9571</MEAN_ANOMALY></meanElements><tleParameters><EPHEMERIS_TYPE>0</EPHEMERIS_TYPE><CLASSIFICATION_TYPE>U</CLASSIFICATION_TYPE><NORAD_CAT_ID>33060</NORAD_CAT_ID><ELEMENT_SET_NO>999</ELEMENT_SET_NO><REV_AT_EPOCH>82026</REV_AT_EPOCH><BSTAR>.42126E-3</BSTAR><MEAN_MOTION_DOT>.2726E-4</MEAN_MOTION_DOT><MEAN_MOTION_DDOT>0</MEAN_MOTION_DDOT></tleParameters></data></segment></body></omm>
<omm id="CCSDS_OMM_VERS" version="2.0">
<header><CREATION_DATE/><ORIGINATOR/></header><body><segment><metadata><OBJECT_NAME>ORBCOMM FM41 [-]</OBJECT_NAME><OBJECT_ID>2008-031B</OBJECT_ID><CENTER_NAME>EARTH</CENTER_NAME><REF_FRAME>TEME</REF_FRAME><TIME_SYSTEM>UTC</TIME_SYSTEM><MEAN_ELEMENT_THEORY>SGP4</MEAN_ELEMENT_THEORY></metadata><data><meanElements><EPOCH>2023-09-17T17:01:22.311264</EPOCH><MEAN_MOTION>14.75767164</MEAN_MOTION><ECCENTRICITY>.0004905</ECCENTRICITY><INCLINATION>48.4440</INCLINATION><RA_OF_ASC_NODE>110.5042</RA_OF_ASC_NODE><ARG_OF_PERICENTER>175.6184</ARG_OF_PERICENTER><MEAN_ANOMALY>223.3903</MEAN_ANOMALY></meanElements><tleParameters><EPHEMERIS_TYPE>0</EPHEMERIS_TYPE><CLASSIFICATION_TYPE>U</CLASSIFICATION_TYPE><NORAD_CAT_ID>33061</NORAD_CAT_ID><ELEMENT_SET_NO>999</ELEMENT_SET_NO><REV_AT_EPOCH>82022</REV_AT_EPOCH><BSTAR>.38665E-3</BSTAR><MEAN_MOTION_DOT>.2471E-4</MEAN_MOTION_DOT><MEAN_MOTION_DDOT>0</MEAN_MOTION_DDOT></tleParameters></data></segment></body></omm>
<omm id="CCSDS_OMM_VERS" version="2.0">
<header><CREATION_DATE/><ORIGINATOR/></header><body><segment><metadata><OBJECT_NAME>ORBCOMM FM29 [-]</OBJECT_NAME><OBJECT_ID>2008-031C</OBJECT_ID><CENTER_NAME>EARTH</CENTER_NAME><REF_FRAME>TEME</REF_FRAME><TIME_SYSTEM>UTC</TIME_SYSTEM><MEAN_ELEMENT_THEORY>SGP4</MEAN_ELEMENT_THEORY></metadata><data><meanElements><EPOCH>2023-09-17T16:30:44.617824</EPOCH><MEAN_MOTION>14.75641064</MEAN_MOTION><ECCENTRICITY>.0006751</ECCENTRICITY><INCLINATION>48.4394</INCLINATION><RA_OF_ASC_NODE>118.5720</RA_OF_ASC_NODE><ARG_OF_PERICENTER>172.0418</ARG_OF_PERICENTER><MEAN_ANOMALY>259.2425</MEAN_ANOMALY></meanElements><tleParameters><EPHEMERIS_TYPE>0</EPHEMERIS_TYPE><CLASSIFICATION_TYPE>U</CLASSIFICATION_TYPE><NORAD_CAT_ID>33062</NORAD_CAT_ID><ELEMENT_SET_NO>999</ELEMENT_SET_NO><REV_AT_EPOCH>82008</REV_AT_EPOCH><BSTAR>.41828E-3</BSTAR><MEAN_MOTION_DOT>.2682E-4</MEAN_MOTION_DOT><MEAN_MOTION_DDOT>0</MEAN_MOTION_DDOT></tleParameters></data></segment></body></omm>
<omm id="CCSDS_OMM_VERS" version="2.0">
<header><CREATION_DATE/><ORIGINATOR/></header><body><segment><metadata><OBJECT_NAME>ORBCOMM FM39 [-]</OBJECT_NAME><OBJECT_ID>2008-031D</OBJECT_ID><CENTER_NAME>EARTH</CENTER_NAME><REF_FRAME>TEME</REF_FRAME><TIME_SYSTEM>UTC</TIME_SYSTEM><MEAN_ELEMENT_THEORY>SGP4</MEAN_ELEMENT_THEORY></metadata><data><meanElements><EPOCH>2023-09-18T04:09:07.134336</EPOCH><MEAN_MOTION>14.74816434</MEAN_MOTION><ECCENTRICITY>.0007504</ECCENTRICITY><INCLINATION>48.4405</INCLINATION><RA_OF_ASC_NODE>135.1875</RA_OF_ASC_NODE><ARG_OF_PERICENTER>150.3974</ARG_OF_PERICENTER><MEAN_ANOMALY>209.7365</MEAN_ANOMALY></meanElements><tleParameters><EPHEMERIS_TYPE>0</EPHEMERIS_TYPE><CLASSIFICATION_TYPE>U</CLASSIFICATION_TYPE><NORAD_CAT_ID>33063</NORAD_CAT_ID><ELEMENT_SET_NO>999</ELEMENT_SET_NO><REV_AT_EPOCH>81990</REV_AT_EPOCH><BSTAR>.34587E-3</BSTAR><MEAN_MOTION_DOT>.2138E-4</MEAN_MOTION_DOT><MEAN_MOTION_DDOT>0</MEAN_MOTION_DDOT></tleParameters></data></segment></body></omm>

</ndm>
