25983,ORBCOMM FM33,1999,100.23,-1.0,-,45.03,Inactive,0,LEO,Eastern Range Airspace,ORBCOMM,Unknown,Unknown,Pegasus,1 25983U 99065D   23261.05152895  .00001503  00000+0  55274-3 0  9999,2 25983  45.0290 144.3248 0008662  89.6545  50.2871 14.36720096244274,14.36720096,0.0008662,LEO
25984,ORBCOMM FM36,1999,100.38,45.0,-,45.04,Inactive,1,LEO,Eastern Range Airspace,ORBCOMM,Commercial,Communications,Pegasus,1 25984U 99065E   23260.71446141  .00001600  00000+0  61062-3 0  9992,2 25984  45.0395 227.3587 0005286 323.3356  36.7129 14.34604667243228,14.34604667,0.0005286,LEO
25985,ORBCOMM FM35,1999,100.4,45.0,+,45.04,Active,1,LEO,Eastern Range Airspace,ORBCOMM,Commercial,Communications,Pegasus,1 25985U 99065F   23261.04771127  .00001504  00000+0  58040-3 0  9990,2 25985  45.0393 227.8125 0001708  48.1075 311.9918 14.34315840243276,14.3431584,0.0001708,LEO
25986,ORBCOMM FM34,1999,100.4,-1.0,-,45.04,Inactive,0,LEO,Eastern Range Airspace,ORBCOMM,Unknown,Unknown,Pegasus,1 25986U 99065G   23261.21975407  .00001401  00000+0  54452-3 0  9996,2 25986  45.0388 227.4662 0004174   0.0571   0.0276 14.34258002243269,14.34258002,0.0004174,LEO
33060,ORBCOMM FM38,2008,97.56,-1.0,-,48.44,Inactive,0,LEO,Russia,ORBCOMM,Unknown,Unknown,Kosmos,1 33060U 08031A   23260.69677857  .00002726  00000+0  42126-3 0  9996,2 33060  48.4404 104.4647 0005851 188.1248 171.9571 14.75996141820261,14.75996141,0.0005851,LEO
33061,ORBCOMM FM41,2008,97.58,-1.0,-,48.44,Inactive,0,LEO,Russia,ORBCOMM,Unknown,Unknown,Kosmos,1 33061U 08031B   23260.70928601  .00002471  00000+0  38665-3 0  9995,2 33061  48.4440 110.5042 0004905 175.6184 223.3903 14.75767164820226,14.75767164,0.0004905,LEO
33062,ORBCOMM FM29,2008,97.59,-1.0,-,48.44,Inactive,0,LEO,Russia,ORBCOMM,Unknown,Unknown,Kosmos,1 33062U 08031C   23260.68801641  .00002682  00000+0  41828-3 0  9996,2 33062  48.4394 118.5720 0006751 172.0418 259.2425 14.75641064820089,14.75641064,0.0006751,LEO
33063,ORBCOMM FM39,2008,97.64,-1.0,-,48.44,Inactive,0,LEO,Russia,ORBCOMM,Unknown,Unknown,Kosmos,1 33063U 08031D   23261.17299924  .00002138  00000+0  34587-3 0  9997,2 33063  48.4405 135.1875 0007504 150.3974 209.7365 14.74816434819908,14.74816434,0.0007504,LEO
